SENTINEL-6              
1 46984U 20086A   24137.14243003 -.00000043  00000+0  77093-4 0  9998
2 46984  66.0415 277.8251 0007794 270.5689  89.4433 12.80930993162847
